{
  "type": "FeatureCollection",
  "features": [
    {
      "type": "Feature",
      "properties": {
        "norad_id": 38091,
        "name": "BEIDOU-2 G5 (C05)",
        "group": "gnss",
        "lat": -2.67473761988306,
        "lon": -51.056165805930775,
        "alt_km": 35733.13137888023,
        "timestamp": "2025-12-18T10:51:26.046492+00:00",
        "meta_object_name": "BEIDOU-2 G5 (C05)",
        "meta_object_id": "2012-008A",
        "meta_epoch": "2025-12-17T20:12:47.726784",
        "meta_mean_motion": 1.00268007,
        "meta_eccentricity": 0.0012979,
        "meta_inclination": 3.1217,
        "meta_ra_of_asc_node": 70.6937,
        "meta_arg_of_pericenter": 231.0033,
        "meta_mean_anomaly": 147.0186,
        "meta_ephemeris_type": 0,
        "meta_classification_type": "U",
        "meta_norad_cat_id": 38091,
        "meta_element_set_no": 999,
        "meta_rev_at_epoch": 5055,
        "meta_bstar": 0,
        "meta_mean_motion_dot": 7.9e-07,
        "meta_mean_motion_ddot": 0,
        "tle_line1": "1 38091U 12008A   25351.84221906  .00000079  00000+0  00000+0 0  9994",
        "tle_line2": "2 38091   3.1217  70.6937 0012979 231.0033 147.0186  1.00268007 50555"
      },
      "geometry": {
        "type": "Point",
        "coordinates": [
          -51.056165805930775,
          -2.67473761988306
        ]
      }
    },
    {
      "type": "Feature",
      "properties": {
        "norad_id": 38250,
        "name": "BEIDOU-2 M3 (C11)",
        "group": "gnss",
        "lat": 27.49189363305087,
        "lon": 110.32582311569735,
        "alt_km": 21567.16700402758,
        "timestamp": "2025-12-18T10:51:26.046504+00:00",
        "meta_object_name": "BEIDOU-2 M3 (C11)",
        "meta_object_id": "2012-018A",
        "meta_epoch": "2025-12-17T03:50:10.506912",
        "meta_mean_motion": 1.86229968,
        "meta_eccentricity": 0.00242614,
        "meta_inclination": 55.9161,
        "meta_ra_of_asc_node": 311.0085,
        "meta_arg_of_pericenter": 274.7282,
        "meta_mean_anomaly": 84.9799,
        "meta_ephemeris_type": 0,
        "meta_classification_type": "U",
        "meta_norad_cat_id": 38250,
        "meta_element_set_no": 999,
        "meta_rev_at_epoch": 9255,
        "meta_bstar": 0,
        "meta_mean_motion_dot": -9.2e-07,
        "meta_mean_motion_ddot": 0,
        "tle_line1": "1 38250U 12018A   25351.15984383 -.00000092  00000+0  00000+0 0  9997",
        "tle_line2": "2 38250  55.9161 311.0085 0024261 274.7282  84.9799  1.86229968 92550"
      },
      "geometry": {
        "type": "Point",
        "coordinates": [
          110.32582311569735,
          27.49189363305087
        ]
      }
    },
    {
      "type": "Feature",
      "properties": {
        "norad_id": 38251,
        "name": "BEIDOU-2 M4 (C12)",
        "group": "gnss",
        "lat": -9.757314538525005,
        "lon": 136.8761602691374,
        "alt_km": 21526.977967107163,
        "timestamp": "2025-12-18T10:51:26.046515+00:00",
        "meta_object_name": "BEIDOU-2 M4 (C12)",
        "meta_object_id": "2012-018B",
        "meta_epoch": "2025-12-17T02:12:20.463264",
        "meta_mean_motion": 1.8622963,
        "meta_eccentricity": 0.00154606,
        "meta_inclination": 55.8177,
        "meta_ra_of_asc_node": 310.2392,
        "meta_arg_of_pericenter": 278.1113,
        "meta_mean_anomaly": 81.6986,
        "meta_ephemeris_type": 0,
        "meta_classification_type": "U",
        "meta_norad_cat_id": 38251,
        "meta_element_set_no": 999,
        "meta_rev_at_epoch": 9255,
        "meta_bstar": 0,
        "meta_mean_motion_dot": -9.2e-07,
        "meta_mean_motion_ddot": 0,
        "tle_line1": "1 38251U 12018B   25351.09190351 -.00000092  00000+0  00000+0 0  9995",
        "tle_line2": "2 38251  55.8177 310.2392 0015460 278.1113  81.6986  1.86229630 92559"
      },
      "geometry": {
        "type": "Point",
        "coordinates": [
          136.8761602691374,
          -9.757314538525005
        ]
      }
    },
    {
      "type": "Feature",
      "properties": {
        "norad_id": 38652,
        "name": "SES-5 (EGNOS/PRN 136)",
        "group": "gnss",
        "lat": -0.06723408359469708,
        "lon": -104.8717013249628,
        "alt_km": 35779.52336277858,
        "timestamp": "2025-12-18T10:51:26.046528+00:00",
        "meta_object_name": "SES-5 (EGNOS/PRN 136)",
        "meta_object_id": "2012-036A",
        "meta_epoch": "2025-12-17T18:29:07.902240",
        "meta_mean_motion": 1.00268121,
        "meta_eccentricity": 0.00018174,
        "meta_inclination": 0.057,
        "meta_ra_of_asc_node": 306.4923,
        "meta_arg_of_pericenter": 320.0276,
        "meta_mean_anomaly": 102.3851,
        "meta_ephemeris_type": 0,
        "meta_classification_type": "U",
        "meta_norad_cat_id": 38652,
        "meta_element_set_no": 999,
        "meta_rev_at_epoch": 4263,
        "meta_bstar": 0,
        "meta_mean_motion_dot": 5.8e-07,
        "meta_mean_motion_ddot": 0,
        "tle_line1": "1 38652U 12036A   25351.77023035  .00000058  00000+0  00000+0 0  9990",
        "tle_line2": "2 38652   0.0570 306.4923 0001817 320.0276 102.3851  1.00268121 42638"
      },
      "geometry": {
        "type": "Point",
        "coordinates": [
          -104.8717013249628,
          -0.06723408359469708
        ]
      }
    },
    {
      "type": "Feature",
      "properties": {
        "norad_id": 38775,
        "name": "BEIDOU-2 M6 (C14)",
        "group": "gnss",
        "lat": 21.431588163291767,
        "lon": 84.00455945372025,
        "alt_km": 21502.160555012633,
        "timestamp": "2025-12-18T10:51:26.046539+00:00",
        "meta_object_name": "BEIDOU-2 M6 (C14)",
        "meta_object_id": "2012-050B",
        "meta_epoch": "2025-12-16T19:16:00.374304",
        "meta_mean_motion": 1.86230897,
        "meta_eccentricity": 0.00113573,
        "meta_inclination": 56.3818,
        "meta_ra_of_asc_node": 68.9326,
        "meta_arg_of_pericenter": 343.3915,
        "meta_mean_anomaly": 16.5942,
        "meta_ephemeris_type": 0,
        "meta_classification_type": "U",
        "meta_norad_cat_id": 38775,
        "meta_element_set_no": 999,
        "meta_rev_at_epoch": 8991,
        "meta_bstar": 0,
        "meta_mean_motion_dot": -7.7e-07,
        "meta_mean_motion_ddot": 0,
        "tle_line1": "1 38775U 12050B   25350.80278211 -.00000077  00000+0  00000+0 0  9995",
        "tle_line2": "2 38775  56.3818  68.9326 0011357 343.3915  16.5942  1.86230897 89910"
      },
      "geometry": {
        "type": "Point",
        "coordinates": [
          84.00455945372025,
          21.431588163291767
        ]
      }
    },
    {
      "type": "Feature",
      "properties": {
        "norad_id": 38779,
        "name": "GSAT-10 (GAGAN/PRN 128)",
        "group": "gnss",
        "lat": 0.06271932901074721,
        "lon": -26.828465281233996,
        "alt_km": 35795.06737004424,
        "timestamp": "2025-12-18T10:51:26.046552+00:00",
        "meta_object_name": "GSAT-10 (GAGAN/PRN 128)",
        "meta_object_id": "2012-051B",
        "meta_epoch": "2025-12-17T20:34:38.737056",
        "meta_mean_motion": 1.00272622,
        "meta_eccentricity": 0.00024814,
        "meta_inclination": 0.0784,
        "meta_ra_of_asc_node": 265.6772,
        "meta_arg_of_pericenter": 219.3156,
        "meta_mean_anomaly": 353.4188,
        "meta_ephemeris_type": 0,
        "meta_classification_type": "U",
        "meta_norad_cat_id": 38779,
        "meta_element_set_no": 999,
        "meta_rev_at_epoch": 4828,
        "meta_bstar": 0,
        "meta_mean_motion_dot": -1.4e-06,
        "meta_mean_motion_ddot": 0,
        "tle_line1": "1 38779U 12051B   25351.85739279 -.00000140  00000+0  00000+0 0  9993",
        "tle_line2": "2 38779   0.0784 265.6772 0002481 219.3156 353.4188  1.00272622 48288"
      },
      "geometry": {
        "type": "Point",
        "coordinates": [
          -26.828465281233996,
          0.06271932901074721
        ]
      }
    },
    {
      "type": "Feature",
      "properties": {
        "norad_id": 38833,
        "name": "GPS BIIF-3  (PRN 24)",
        "group": "gnss",
        "lat": 53.42857659423662,
        "lon": -123.98094506578941,
        "alt_km": 19744.252169597028,
        "timestamp": "2025-12-18T10:51:26.046565+00:00",
        "meta_object_name": "GPS BIIF-3  (PRN 24)",
        "meta_object_id": "2012-053A",
        "meta_epoch": "2025-12-17T20:05:06.382752",
        "meta_mean_motion": 2.00565081,
        "meta_eccentricity": 0.0176009,
        "meta_inclination": 53.5589,
        "meta_ra_of_asc_node": 151.0299,
        "meta_arg_of_pericenter": 64.0689,
        "meta_mean_anomaly": 297.7246,
        "meta_ephemeris_type": 0,
        "meta_classification_type": "U",
        "meta_norad_cat_id": 38833,
        "meta_element_set_no": 999,
        "meta_rev_at_epoch": 9580,
        "meta_bstar": 0,
        "meta_mean_motion_dot": 6.4e-07,
        "meta_mean_motion_ddot": 0,
        "tle_line1": "1 38833U 12053A   25351.83687943  .00000064  00000+0  00000+0 0  9998",
        "tle_line2": "2 38833  53.5589 151.0299 0176009  64.0689 297.7246  2.00565081 95801"
      },
      "geometry": {
        "type": "Point",
        "coordinates": [
          -123.98094506578941,
          53.42857659423662
        ]
      }
    }
  ]
}